324P/LaSagra,e,21.3991,270.5726,57.5152,3.096261,0.1809038,0.15302423,219.9835,09/01.0/2024,2000,g 13.0,4.0
# From MPEC 2024-LE0
325P/Yang-Gao,e,16.8447,256.8635,344.9222,3.545967,0.1476053,0.58907519,131.2664,09/01.0/2024,2000,g 14.0,4.0
# From MPEC 2024-LE0
326P/Hill,e,2.4722,99.7652,278.5346,4.073086,0.1198999,0.32036381,29.5056,09/01.0/2024,2000,g 13.5,4.0
# From MPEC 2024-M41
327P/VanNess,e,36.2419,173.9939,185.0422,3.562595,0.1465731,0.56279411,106.9701,09/01.0/2024,2000,g 16.0,4.0
# From MPEC 2024-R10
328P/LONEOS-Tucker,e,17.6733,341.6085,30.6612,4.189013,0.1149573,0.55278206,4.0286,09/01.0/2024,2000,g 14.5,4.0
# From MPC101101
329P/LINEAR-Catalina,e,21.7173,87.6869,343.5741,5.184168,0.0834998,0.67885253,266.5253,09/01.0/2024,2000,g 13.5,4.0
# From MPEC 2023-J29
330P/Catalina,e,15.7335,293.0807,188.8203,6.616978,0.0579048,0.55013757,169.3899,09/01.0/2024,2000,g 12.0,4.0
# From MPEC 2024-Q20
331P/Gibbs,e,9.7401,216.7491,185.2154,3.003833,0.1893173,0.04151744,269.5490,09/01.0/2024,2000,g 12.0,4.0
# From MPEC 2016-K18
332P/Ikeya-Murakami,e,9.3835,3.7568,152.2890,3.086610,0.1817530,0.48956795,201.7006,09/01.0/2024,2000,g 18.0,4.0
# From MPEC 2016-K18
332P-A/Ikeya-Murakami,e,9.3839,152.3103,3.7359,3.086601,0.1817538,0.48957350,201.6998,09/01.0/2024,2000,g  9.0,4.0
# From MPEC 2016-EI8
332P-B/Ikeya-Murakami,e,9.3805,3.8028,152.3711,3.082329,0.1821317,0.48970701,359.9699,03/17.0/2016,2000,g 19.0,4.0
# From MPEC 2016-K18
332P-C/Ikeya-Murakami,e,9.3830,152.3016,3.7363,3.086567,0.1817567,0.48957906,201.7172,09/01.0/2024,2000,g 16.5,4.0
# From MPEC 2016-ED0
332P-D/Ikeya-Murakami,e,9.3761,3.7923,152.4393,3.081138,0.1822373,0.48977814,359.9486,03/17.0/2016,2000,g 19.0,4.0
# From MPEC 2016-ED0
332P-E/Ikeya-Murakami,e,9.3774,3.8228,152.2825,3.079877,0.1823493,0.48922008,359.9889,03/17.0/2016,2000,g 21.0,4.0
# From MPEC 2016-ED0
332P-F/Ikeya-Murakami,e,9.5293,3.4757,152.8203,3.163214,0.1751908,0.49918860,359.8501,03/17.0/2016,2000,g 21.0,4.0
# From MPEC 2016-ED0
332P-G/Ikeya-Murakami,e,9.2523,3.6955,154.4000,3.050519,0.1849880,0.49200362,359.9006,03/19.0/2016,2000,g 19.0,4.0
# From MPC100285
332P-H/Ikeya-Murakami,e,9.3835,152.3023,3.7360,3.086748,0.1817407,0.48961478,201.6342,09/01.0/2024,2000,g 19.0,4.0
# From MPEC 2016-ED0
332P-I/Ikeya-Murakami,e,9.3791,3.8048,152.3297,3.081767,0.1821815,0.48955490,359.9360,03/17.0/2016,2000,g 20.5,2.0
# From MPEC 2016-EI8
332P-J/Ikeya-Murakami,e,9.4296,3.6729,152.7712,3.115165,0.1792596,0.49429435,359.8613,03/17.0/2016,2000,g 20.5,2.0
# From MPEC 2024-NE4
333P/LINEAR,e,132.0216,115.7057,26.0184,4.220349,0.1136793,0.73629172,349.8485,09/01.0/2024,2000,g 15.0,4.0
# From MPEC 2023-J29
334P/NEAT,e,20.3714,90.4446,90.0383,6.828043,0.0552408,0.35134658,146.2082,09/01.0/2024,2000,g 10.5,4.0
# From MPEC 2023-M14
335P/Gibbs,e,7.2950,330.8078,162.3037,3.577578,0.1456533,0.54661476,109.3576,09/01.0/2024,2000,g 16.8,4.0
# From MPC105244
336P/McNaught,e,17.8317,298.2060,308.6243,5.037816,0.0871647,0.44433361,241.9549,09/01.0/2024,2000,g 13.5,4.0
# From MPEC 2024-A43
337P/WISE,e,15.7675,104.2766,163.1486,3.298477,0.1645257,0.49940778,129.8810,09/01.0/2024,2000,g 17.0,4.0
# From MPEC 2024-R10
338P/McNaught,e,25.3853,9.7931,4.5992,3.893486,0.1282910,0.41237313,3.6817,09/01.0/2024,2000,g 12.0,4.0
# From MPC101101
339P/Gibbs,e,5.7333,27.4720,172.6861,3.699542,0.1385103,0.63565126,50.8438,09/01.0/2024,2000,g 17.0,4.0
# From MPC133426
340P/Boattini,e,2.0787,291.6621,36.0628,4.248382,0.1125560,0.28024461,319.2293,09/01.0/2024,2000,g 14.3,4.0
# From MPEC 2023-J29
341P/Gibbs,e,3.7964,29.9594,312.3441,4.286994,0.1110388,0.41533317,334.0547,09/01.0/2024,2000,g 12.5,4.0
# From MPC101101
342P/SOHO,e,11.6949,73.3225,27.6338,3.041070,0.1858508,0.98294567,0.0000,02/07.5609/2027,2000,g  9.0,4.0
# From MPEC 2024-PC5
343P/NEAT-LONEOS,e,5.5972,257.0572,137.5949,5.457518,0.0773057,0.58514571,213.9204,09/01.0/2024,2000,g 14.0,4.0
# From MPEC 2023-J29
344P/Read,e,3.4992,273.1006,140.5780,4.856835,0.0920818,0.42379361,262.7103,09/01.0/2024,2000,g 13.0,4.0
# From MPEC 2024-Q20
345P/LINEAR,e,2.7280,154.5106,196.6740,4.031384,0.1217651,0.22126299,0.1719,09/01.0/2024,2000,g 12.0,4.0
# From MPEC 2022-K19
346P/Catalina,e,22.2184,102.4566,336.0324,4.469873,0.1042945,0.50389103,287.0796,09/01.0/2024,2000,g 14.0,4.0
# From MPEC 2024-M41
347P/PANSTARRS,e,11.7653,260.9898,98.2520,3.603972,0.1440562,0.38682453,58.9785,09/01.0/2024,2000,g 15.0,4.0
# From MPEC 2022-ED3
348P/PANSTARRS,e,17.7390,312.9234,135.7323,3.151861,0.1761381,0.30742161,163.9730,09/01.0/2024,2000,g 14.0,4.0
# From MPEC 2024-LE0
349P/Lemmon,e,5.4885,331.7465,255.7840,3.578570,0.1455928,0.29858101,14.1114,09/01.0/2024,2000,g 14.0,4.0
# From MPC111775
350P/McNaught,e,7.3638,65.2930,140.0118,4.081159,0.1195443,0.09451724,292.7878,09/01.0/2024,2000,g 14.0,4.0
# From MPC105244
351P/Wiegert-PANSTARRS,e,12.7748,352.6765,283.3091,4.440756,0.1053219,0.29475919,338.2646,09/01.0/2024,2000,g 12.5,4.0
# From MPEC 2023-J29
352P/Skiff,e,21.0106,28.0208,309.4021,6.653291,0.0574314,0.61657357,151.0061,09/01.0/2024,2000,g 13.2,4.0
# From MPEC 2020-AA5
353P/McNaught,e,28.4170,121.5213,230.4922,4.170702,0.1157152,0.46989535,282.6575,09/01.0/2024,2000,g 14.5,4.0
# From MPEC 2024-EF7
354P/LINEAR,e,5.2507,320.0691,132.8433,2.289994,0.2844151,0.12449179,91.8588,09/01.0/2024,2000,g 15.5,4.0
# From MPEC 2023-CD7
355P/LINEAR-NEAT,e,11.0464,51.4327,336.3054,3.469554,0.1525084,0.50813043,23.2787,09/01.0/2024,2000,g 15.5,2.0
# From MPEC 2022-F14
356P/WISE,e,9.6405,160.8039,226.1633,4.153870,0.1164192,0.35603216,284.4307,09/01.0/2024,2000,g 14.0,4.0
# From MPC114609
357P/Hill,e,6.3140,44.5781,1.4668,4.455770,0.1047900,0.43612740,239.1470,09/01.0/2024,2000,g 15.5,4.0
# From MPEC 2024-EF7
358P/PANSTARRS,e,11.0664,85.6661,299.4827,3.147798,0.1764793,0.23960322,52.2319,09/01.0/2024,2000,g 18.0,4.0
# From MPC110086
359P/LONEOS,e,10.2629,149.7642,200.2972,4.641574,0.0985612,0.32342915,252.8440,09/01.0/2024,2000,g 13.5,4.0
# From MPC108599
360P/WISE,e,24.1089,2.2118,354.2454,3.696840,0.1386622,0.49912363,355.4582,09/01.0/2024,2000,g 19.5,6.0
# From MPEC 2023-CD7
361P/Spacewatch,e,13.9010,203.2491,219.0793,4.933377,0.0899472,0.43958866,202.2369,09/01.0/2024,2000,g 12.0,4.0
# From MPC114609
363P/Lemmon,e,5.3897,146.6348,340.8724,3.575281,0.1457937,0.51868057,349.3288,09/01.0/2024,2000,g 17.5,4.0
# From MPEC 2024-M41
364P/PANSTARRS,e,12.0769,46.1210,212.3125,2.891757,0.2004294,0.72113453,95.3592,09/01.0/2024,2000,g 17.0,2.0
# From MPC111775
365P/PANSTARRS,e,9.8499,86.6566,67.4233,3.156437,0.1757553,0.58146929,57.5759,09/01.0/2024,2000,g 17.0,4.0
# From MPC114610
366P/Spacewatch,e,8.8569,70.7230,153.0111,3.499131,0.1505788,0.34842523,337.1211,09/01.0/2024,2000,g 15.0,4.0
# From MPC112395
367P/Catalina,e,8.4596,58.6613,172.7090,3.510784,0.1498297,0.27995334,340.1295,09/01.0/2024,2000,g 17.5,2.0
# From MPC114610
368P/NEAT,e,15.4821,257.8596,118.9716,5.533322,0.0757225,0.62615588,164.8544,09/01.0/2024,2000,g 14.0,4.0
# From MPC114610
369P/Hill,e,10.3220,47.2954,13.2052,4.379456,0.1075409,0.55593688,230.5580,09/01.0/2024,2000,g 15.0,4.0
# From MPEC 2021-F20
370P/NEAT,e,19.4231,55.0820,356.7571,6.438127,0.0603344,0.61545754,137.1058,09/01.0/2024,2000,g 13.0,4.0
# From MPC114610
371P/LINEAR-Skiff,e,17.3852,67.2830,308.5684,4.180482,0.1153093,0.47682917,248.5327,09/01.0/2024,2000,g 16.0,4.0
# From MPEC 2020-K19
372P/McNaught,e,9.5065,27.5519,326.0148,4.511388,0.1028582,0.15160982,220.0156,09/01.0/2024,2000,g 13.5,4.0
# From MPEC 2021-F20
373P/Rinner,e,13.7702,231.9423,221.0784,3.798233,0.1331471,0.39369228,262.2829,09/01.0/2024,2000,g 14.5,4.0
# From MPC114610
374P/Larson,e,10.7637,7.8938,51.5302,4.971064,0.0889263,0.46376507,182.9224,09/01.0/2024,2000,g 14.0,4.0
# From MPEC 2021-F20
375P/Hill,e,17.3682,359.8757,119.4009,5.546407,0.0754547,0.65993366,156.9035,09/01.0/2024,2000,g 16.0,4.0
# From MPEC 2022-K19
376P/LONEOS,e,1.1662,312.8555,285.4065,5.756846,0.0713555,0.51383508,129.3932,09/01.0/2024,2000,g 12.5,4.0
# From MPEC 2022-N37
377P/Scotti,e,9.0256,226.0127,354.8737,6.696712,0.0568737,0.25114099,86.1392,09/01.0/2024,2000,g  9.5,4.0
# From MPEC 2024-D33
378P/McNaught,e,19.1493,93.8074,193.3758,6.290954,0.0624639,0.46467270,88.8302,09/01.0/2024,2000,g 12.0,4.0
# From MPC115889
379P/Spacewatch,e,12.4389,30.4988,184.4517,3.487432,0.1513371,0.35006373,278.3680,09/01.0/2024,2000,g 15.0,4.0
# From MPEC 2023-C45
380P/PANSTARRS,e,8.0206,127.9738,87.9064,4.430474,0.1056888,0.33630483,208.0475,09/01.0/2024,2000,g 12.5,4.0
# From MPEC 2021-J28
381P/LINEAR-Spacewatch,e,28.3546,173.3002,173.8518,7.144017,0.0516167,0.68098964,93.0049,09/01.0/2024,2000,g 17.5,2.0
# From MPEC 2024-MB8
382P/Larson,e,8.2634,171.5362,162.2074,5.928080,0.0682862,0.26958705,69.8207,09/01.0/2024,2000,g  8.0,4.0
# From MPEC 2022-OB6
383P/Christensen,e,12.3198,207.8531,133.7484,3.548279,0.1474611,0.59869156,261.2777,09/01.0/2024,2000,g 18.0,4.0
# From MPEC 2024-Q20
384P/Kowalski,e,7.2833,354.1996,37.7130,2.898307,0.1997503,0.61629882,356.3758,09/01.0/2024,2000,g 19.5,4.0
# From MPEC 2021-F20
385P/Hill,e,16.8260,357.0581,44.4215,4.288830,0.1109675,0.40207156,200.9575,09/01.0/2024,2000,g 13.0,4.0
# From MPEC 2021-L04
386P/PANSTARRS,e,15.2425,134.9163,353.0836,4.050047,0.1209244,0.41719869,178.1358,09/01.0/2024,2000,g 14.5,4.0
# From MPEC 2021-J28
387P/Boattini,e,8.9370,259.2409,162.8356,4.797181,0.0938048,0.73709867,170.6857,09/01.0/2024,2000,g 15.0,4.0
# From MPEC 2021-S45
388P/Gibbs,e,23.8871,37.0265,42.3325,5.240593,0.0821549,0.61933341,153.1370,09/01.0/2024,2000,g 13.0,4.0
# From MPEC 2022-OB6
389P/Siding Spring,e,160.0845,218.8750,249.3687,5.631961,0.0737420,0.70527468,125.8070,09/01.0/2024,2000,g 16.0,4.0
# From MPEC 2024-EF7
390P/Gibbs,e,18.5336,152.2291,232.5070,5.815819,0.0702729,0.70707351,114.0666,09/01.0/2024,2000,g 12.0,4.0
# From MPEC 2021-F20
391P/Kowalski,e,21.2593,124.7839,187.1274,4.689296,0.0970605,0.11863882,229.0159,09/01.0/2024,2000,g  8.0,4.0
# From MPEC 2021-J28
